ONEWEB-0216             
1 48801U 21045AL  23226.23651980 -.00000065  00000+0 -20777-3 0  9990
2 48801  87.8989 105.9108 0001402  81.9983 278.1306 13.15551162108951
ONEWEB-0239             
1 48802U 21045AM  23227.07738660 -.00000090  00000+0 -27300-3 0  9992
2 48802  87.8988 105.6933 0002375 104.1949 255.9445 13.15549663109124
ONEWEB-0249             
1 48967U 21060A   23227.07359435  .00000071  00000+0  15146-3 0  9992
2 48967  87.8974  75.2018 0001738  83.2999 276.8329 13.16597891104430
ONEWEB-0250             
1 48968U 21060B   23227.07782110  .00000070  00000+0  15030-3 0  9994
2 48968  87.8976  75.2107 0001979  94.5472 265.5884 13.16593076104410
ONEWEB-0252             
1 48970U 21060D   23227.02925804  .00000133  00000+0  31435-3 0  9998
2 48970  87.8983  75.2258 0001576  87.3040 272.8271 13.16592833104479
ONEWEB-0253             
1 48971U 21060E   23227.09469817  .00000104  00000+0  23930-3 0  9992
2 48971  87.9087  75.2856 0001695 101.8573 258.2748 13.16594795104404
ONEWEB-0254             
1 48972U 21060F   23227.02715214  .00000069  00000+0  14728-3 0  9996
2 48972  87.8985  75.2153 0001805  97.3293 262.8043 13.16593269104394
ONEWEB-0255             
1 48973U 21060G   23226.83715757 -.00000075  00000+0 -22939-3 0  9999
2 48973  87.8970  75.2919 0001797  86.1205 274.0131 13.16594990104450
